ONEWEB-0346             
1 49212U 21083AC  23261.81775098  .00000058  00000+0  11472-3 0  9991
2 49212  87.9296 174.7971 0001394  74.1412 285.9873 13.18687325 97870
ONEWEB-0348             
1 49213U 21083AD  23261.85284872  .00000153  00000+0  34505-3 0  9999
2 49213  87.9168 114.0180 0001012  59.2946 300.8287 13.20769817104506
ONEWEB-0350             
1 49214U 21083AE  23261.77453544  .00000230  00000+0  59385-3 0  9994
2 49214  87.9014 159.6718 0001545  61.1841 298.9443 13.13475184 99345
ONEWEB-0351             
1 49215U 21083AF  23261.84652713  .00000132  00000+0  29322-3 0  9991
2 49215  87.9171 114.0180 0002203  77.6385 282.4995 13.20770023104463
ONEWEB-0352             
1 49216U 21083AG  23261.75550442 -.00000096  00000+0 -29844-3 0  9998
2 49216  87.9074 159.6739 0002164  72.8751 287.2615 13.13472701 99437
ONEWEB-0354             
1 49217U 21083AH  23261.87178070  .00000049  00000+0  88386-4 0  9998
2 49217  87.9172 113.9961 0001757  67.4520 292.6799 13.20773048104502
ONEWEB-0355             
1 49218U 21083AJ  23261.78724530  .00000408  00000+0  10816-2 0  9997
2 49218  87.9074 159.6675 0001946  69.1320 291.0017 13.13470982 99311
ONEWEB-0357             
1 49219U 21083AK  23261.86758334 -.00000074  00000+0 -21300-3 0  9998
2 49219  87.9171 114.0159 0001596  66.5975 293.5326 13.20772869104505
